{"spkid": "20228368", "covariance": {"epoch": "2457034.5", "labels": ["e", "q", "tp", "node", "peri", "i"], "data": [["6.338470034176696E-15", "-9.423269682372902E-15", "1.426816410336137E-13", "4.488212190641212E-13", "-1.578446617616279E-13", "1.318265979095498E-13"], ["-9.423269682372902E-15", "1.401606158179291E-14", "-2.237837411021748E-13", "-6.546018693822361E-13", "2.190056265999552E-13", "-1.942391414935439E-13"], ["1.426816410336137E-13", "-2.237837411021748E-13", "6.495451249955387E-10", "2.52324194545287E-10", "-1.048893155095502E-10", "9.974290278042188E-11"], ["4.488212190641212E-13", "-6.546018693822361E-13", "2.52324194545287E-10", "1.678494046898923E-9", "-1.578965988061081E-9", "-1.485312566754254E-11"], ["-1.578446617616279E-13", "2.190056265999552E-13", "-1.048893155095502E-10", "-1.578965988061081E-9", "1.573891756609559E-9", "3.316571637502678E-11"], ["1.318265979095498E-13", "-1.942391414935439E-13", "9.974290278042188E-11", "-1.485312566754254E-11", "3.316571637502678E-11", "8.333868096847471E-11"]], "elements": [{"name": "e", "sigma": 7.96145089426337e-08, "units": null, "title": "eccentricity", "value": ".7021751190960603", "label": "e"}, {"label": "q", "units": "au", "value": ".4402874659020606", "title": "perihelion distance", "name": "q", "sigma": 1.183894487773e-07}, {"sigma": 2.54861751739161e-05, "name": "tp", "units": "TDB", "value": "2457040.938753781537", "title": "time of perihelion passage", "label": "tp"}, {"units": "deg", "value": "58.04343357367927", "title": "longitude of the ascending node", "name": "om", "sigma": 4.09694281983398e-05, "label": "node"}, {"name": "w", "sigma": 3.96723046546273e-05, "title": "argument of perihelion", "value": "244.4308180522864", "units": "deg", "label": "peri"}, {"label": "i", "name": "i", "sigma": 9.12900218909354e-06, "units": "deg", "title": "inclination", "value": "14.73651213480455"}]}, "elements": [{"label": "e", "sigma": "7.9422E-8", "name": "e", "value": ".7021849444606878", "title": "eccentricity", "units": null}, {"label": "a", "units": "au", "value": "1.479132998275701", "title": "semi-major axis", "sigma": "9.2168E-9", "name": "a"}, {"label": "q", "sigma": "1.1835E-7", "name": "q", "title": "perihelion distance", "value": ".4405080760315072", "units": "au"}, {"value": "14.72868126187824", "title": "inclination; angle with respect to x-y ecliptic plane", "units": "deg", "name": "i", "sigma": "9.0908E-6", "label": "i"}, {"label": "node", "title": "longitude of the ascending node", "value": "57.9086160948484", "units": "deg", "name": "om", "sigma": "4.1045E-5"}, {"units": "deg", "title": "argument of perihelion", "value": "244.5514673411161", "sigma": "3.972E-5", "name": "w", "label": "peri"}, {"label": "M", "units": "deg", "title": "mean anomaly", "value": "119.6993292872188", "name": "ma", "sigma": "2.4733E-5"}, {"label": "tp", "units": "TDB", "title": "time of perihelion passage", "value": "2460982.026643021055", "name": "tp", "sigma": "4.3454E-5"}, {"sigma": "6.1415E-6", "name": "per", "value": "657.0664094842041", "title": "sidereal orbital period", "units": "d", "label": "period"}, {"sigma": "5.121E-9", "name": "n", "units": "deg/d", "value": ".5478898248391655", "title": "mean motion", "label": "n"}, {"value": "2.517757920519894", "title": "aphelion distance", "units": "au", "name": "ad", "sigma": "1.5689E-8", "label": "Q"}], "epoch": "2461200.5"}